NORAD_CAT_ID,OBJECT_NAME,OBJECT_TYPE,EPOCH,MEAN_MOTION,ECCENTRICITY,INCLINATION,RA_OF_ASC_NODE,ARG_OF_PERICENTER,MEAN_ANOMALY,BSTAR,MEAN_MOTION_DOT,MEAN_MOTION_DDOT,TLE_LINE0,TLE_LINE1,TLE_LINE2,SEMIMAJOR_AXIS,PERIOD,APOGEE,PERIGEE,DECAYED
52560.0,STARLINK-3956,PAYLOAD,2024-04-30 17:56:29,15.08835898,0.0001351,53.2188,282.5253,109.4518,250.662,0.00034141,5.149e-05,0.0,0 STARLINK-3956,1 52560U 22051AD  24121.74756385  .00005149  00000-0  34141-3 0  9998,2 52560  53.2188 282.5253 0001351 109.4518 250.6620 15.08835898109301,6917.893,95.438,540.693,538.823,0.0
52560.0,STARLINK-3956,PAYLOAD,2024-05-01 09:50:20,15.0884983,0.0001192,53.2181,279.55,101.7324,258.3802,0.0001607,2.271e-05,0.0,0 STARLINK-3956,1 52560U 22051AD  24122.40995609  .00002271  00000-0  16070-3 0  9990,2 52560  53.2181 279.5500 0001192 101.7324 258.3802 15.08849830109407,6917.85,95.437,540.54,538.891,0.0
52560.0,STARLINK-3956,PAYLOAD,2024-05-02 09:41:07,15.08843901,0.0001821,53.2178,275.0901,87.6975,272.4226,0.00014727,2.057e-05,0.0,0 STARLINK-3956,1 52560U 22051AD  24123.40355909  .00002057  00000-0  14727-3 0  9993,2 52560  53.2178 275.0901 0001821  87.6975 272.4226 15.08843901109558,6917.868,95.437,540.993,538.474,0.0
52560.0,STARLINK-3956,PAYLOAD,2024-05-02 14:27:17,15.08836458,0.0001578,53.2178,274.1975,89.0258,271.0915,3.2424e-05,2.28e-06,0.0,0 STARLINK-3956,1 52560U 22051AD  24123.60228242  .00000228  00000-0  32424-4 0  9997,2 52560  53.2178 274.1975 0001578  89.0258 271.0915 15.08836458109513,6917.891,95.438,540.848,538.665,0.0
52560.0,STARLINK-3956,PAYLOAD,2024-05-03 14:18:03,15.08854157,0.0001416,53.2164,269.736,89.6828,270.4326,0.00036352,5.504e-05,0.0,0 STARLINK-3956,1 52560U 22051AD  24124.59587191  .00005504  00000-0  36352-3 0  9992,2 52560  53.2164 269.7360 0001416  89.6828 270.4326 15.08854157109667,6917.837,95.437,540.682,538.723,0.0
52560.0,STARLINK-3956,PAYLOAD,2024-05-03 15:53:26,15.08856455,0.0001155,53.2154,269.4369,94.5765,265.5359,0.0003587,5.428e-05,0.0,0 STARLINK-3956,1 52560U 22051AD  24124.66211058  .00005428  00000-0  35870-3 0  9995,2 52560  53.2154 269.4369 0001155  94.5765 265.5359 15.08856455109740,6917.83,95.437,540.494,538.896,0.0
52560.0,STARLINK-3956,PAYLOAD,2024-05-04 03:01:08,15.08844335,0.0001238,53.2148,267.3556,80.6103,279.5029,0.00020075,2.909e-05,0.0,0 STARLINK-3956,1 52560U 22051AD  24125.12579458  .00002909  00000-0  20075-3 0  9990,2 52560  53.2148 267.3556 0001238  80.6103 279.5029 15.08844335109813,6917.867,95.437,540.589,538.876,0.0
52560.0,STARLINK-3956,PAYLOAD,2024-05-04 09:22:41,15.08833007,0.0001925,53.2165,266.1676,78.2407,281.8801,-5.691e-05,-1.194e-05,0.0,0 STARLINK-3956,1 52560U 22051AD  24125.39076144 -.00001194  00000-0 -56910-4 0  9998,2 52560  53.2165 266.1676 0001925  78.2407 281.8801 15.08833007109857,6917.902,95.438,541.098,538.435,0.0
52560.0,STARLINK-3956,PAYLOAD,2024-05-05 12:24:15,15.08850047,0.0001418,53.2164,261.1117,67.8766,292.2377,0.0012584,0.00019802,0.0,0 STARLINK-3956,1 52560U 22051AD  24126.51684743  .00019802  00000-0  12584-2 0  9993,2 52560  53.2164 261.1117 0001418  67.8766 292.2377 15.08850047110028,6917.85,95.437,540.696,538.734,0.0
52560.0,STARLINK-3956,PAYLOAD,2024-05-05 13:59:38,15.08856023,0.0001376,53.217,260.8146,65.2816,294.8319,0.0014382,0.00022685,0.0,0 STARLINK-3956,1 52560U 22051AD  24126.58308674  .00022685  00000-0  14382-2 0  9997,2 52560  53.2170 260.8146 0001376  65.2816 294.8319 15.08856023109969,6917.831,95.437,540.648,538.745,0.0
52560.0,STARLINK-3956,PAYLOAD,2024-05-05 15:35:01,15.08860405,0.0001378,53.2173,260.5172,65.5905,294.523,0.0015197,0.00023994,0.0,0 STARLINK-3956,1 52560U 22051AD  24126.64932587  .00023994  00000-0  15197-2 0  9999,2 52560  53.2173 260.5172 0001378  65.5905 294.5230 15.08860405109971,6917.818,95.436,540.636,538.73,0.0
52560.0,STARLINK-3956,PAYLOAD,2024-05-06 12:15:02,15.08862756,0.0001695,53.2175,256.6518,117.7205,242.3959,0.0016565,0.0002619,0.0,0 STARLINK-3956,1 52560U 22051AD  24127.51044268  .00026190  00000-0  16565-2 0  9997,2 52560  53.2175 256.6518 0001695 117.7205 242.3959 15.08862756110172,6917.811,95.436,540.848,538.503,0.0
52560.0,STARLINK-3956,PAYLOAD,2024-05-06 13:50:25,15.08861567,0.0001598,53.2179,256.3543,118.8324,241.2828,0.0015211,0.00024018,0.0,0 STARLINK-3956,1 52560U 22051AD  24127.57668191  .00024018  00000-0  15211-2 0  9994,2 52560  53.2179 256.3543 0001598 118.8324 241.2828 15.08861567110113,6917.814,95.436,540.785,538.574,0.0
52560.0,STARLINK-3956,PAYLOAD,2024-05-06 15:25:48,15.08865978,0.000126,53.2177,256.0563,71.2625,288.8504,0.0011194,0.00017585,0.0,0 STARLINK-3956,1 52560U 22051AD  24127.64292199  .00017585  00000-0  11194-2 0  9990,2 52560  53.2177 256.0563 0001260  71.2625 288.8504 15.08865978110121,6917.801,95.436,540.538,538.794,0.0
52560.0,STARLINK-3956,PAYLOAD,2024-05-07 00:58:07,15.08857168,0.0001335,53.2175,254.2717,65.0137,295.0994,0.00095288,0.00014917,0.0,0 STARLINK-3956,1 52560U 22051AD  24128.04035886  .00014917  00000-0  95288-3 0  9996,2 52560  53.2175 254.2717 0001335  65.0137 295.0994 15.08857168110251,6917.828,95.436,540.616,538.769,0.0
52560.0,STARLINK-3956,PAYLOAD,2024-05-07 13:41:12,15.08846898,0.0001408,53.2192,251.8968,77.8773,282.2377,0.00028451,4.244e-05,0.0,0 STARLINK-3956,1 52560U 22051AD  24128.57028101  .00004244  00000-0  28451-3 0  9996,2 52560  53.2192 251.8968 0001408  77.8773 282.2377 15.08846898110339,6917.859,95.437,540.698,538.75,0.0
52560.0,STARLINK-3956,PAYLOAD,2024-05-07 15:16:35,15.08848529,0.0001456,53.2192,251.5996,81.0723,279.0434,0.00029265,4.374e-05,0.0,0 STARLINK-3956,1 52560U 22051AD  24128.63652055  .00004374  00000-0  29265-3 0  9992,2 52560  53.2192 251.5996 0001456  81.0723 279.0434 15.08848529110276,6917.854,95.437,540.727,538.712,0.0
52560.0,STARLINK-3956,PAYLOAD,2024-05-08 13:31:59,15.08841995,0.0001344,53.2179,247.4354,91.6951,268.4195,2.0294e-05,3.5e-07,0.0,0 STARLINK-3956,1 52560U 22051AD  24129.56388182  .00000035  00000-0  20294-4 0  9996,2 52560  53.2179 247.4354 0001344  91.6951 268.4195 15.08841995110488,6917.874,95.437,540.669,538.81,0.0
52560.0,STARLINK-3956,PAYLOAD,2024-05-08 15:07:22,15.08841771,0.0001209,53.2175,247.1387,90.4651,269.6479,3.2552e-05,2.3e-06,0.0,0 STARLINK-3956,1 52560U 22051AD  24129.63012072  .00000230  00000-0  32552-4 0  9993,2 52560  53.2175 247.1387 0001209  90.4651 269.6479 15.08841771110425,6917.875,95.437,540.576,538.904,0.0
52560.0,STARLINK-3956,PAYLOAD,2024-05-09 14:58:09,15.08852308,0.0001263,53.2168,242.6783,102.5755,257.5379,0.00021745,3.176e-05,0.0,0 STARLINK-3956,1 52560U 22051AD  24130.62371730  .00003176  00000-0  21745-3 0  9996,2 52560  53.2168 242.6783 0001263 102.5755 257.5379 15.08852308110576,6917.843,95.437,540.581,538.834,0.0
52560.0,STARLINK-3956,PAYLOAD,2024-05-10 13:13:33,15.08846893,0.0001327,53.2179,238.5146,84.1393,275.975,0.00023039,3.381e-05,0.0,0 STARLINK-3956,1 52560U 22051AD  24131.55108100  .00003381  00000-0  23039-3 0  9994,2 52560  53.2179 238.5146 0001327  84.1393 275.9750 15.08846893110781,6917.859,95.437,540.642,538.806,0.0
52560.0,STARLINK-3956,PAYLOAD,2024-05-10 14:48:56,15.08850178,0.0001326,53.2175,238.2159,83.9872,276.1271,0.00028485,4.25e-05,0.0,0 STARLINK-3956,1 52560U 22051AD  24131.61731885  .00004250  00000-0  28485-3 0  9999,2 52560  53.2175 238.2159 0001326  83.9872 276.1271 15.08850178110722,6917.849,95.437,540.632,538.797,0.0
52560.0,STARLINK-3956,PAYLOAD,2024-05-10 16:24:19,15.08853513,0.0001341,53.2173,237.9169,88.5254,271.5891,0.00035575,5.38e-05,0.0,0 STARLINK-3956,1 52560U 22051AD  24131.68355677  .00005380  00000-0  35575-3 0  9990,2 52560  53.2173 237.9169 0001341  88.5254 271.5891 15.08853513110733,6917.839,95.437,540.632,538.776,0.0
52560.0,STARLINK-3956,PAYLOAD,2024-05-11 13:04:16,15.08958099,0.0001694,53.2169,234.0489,102.693,257.4252,0.0030949,0.00049474,0.0,0 STARLINK-3956,1 52560U 22051AD  24132.54463854  .00049474  00000-0  30949-2 0  9994,2 52560  53.2169 234.0489 0001694 102.6930 257.4252 15.08958099110932,6917.519,95.43,540.556,538.213,0.0
52560.0,STARLINK-3956,PAYLOAD,2024-05-11 16:15:04,15.08879161,0.0002028,53.2175,233.4567,85.6606,274.4618,-4.9218e-05,-1.072e-05,0.0,0 STARLINK-3956,1 52560U 22051AD  24132.67712969 -.00001072  00000-0 -49218-4 0  9997,2 52560  53.2175 233.4567 0002028  85.6606 274.4618 15.08879161110950,6917.761,95.435,541.029,538.223,0.0
52560.0,STARLINK-3956,PAYLOAD,2024-05-12 00:12:03,15.08723088,0.0001552,53.2173,231.9709,95.4028,264.7141,-0.0048336,-0.00076158,0.0,0 STARLINK-3956,1 52560U 22051AD  24133.00836948 -.00076158  00000-0 -48336-2 0  9994,2 52560  53.2173 231.9709 0001552  95.4028 264.7141 15.08723088111003,6918.238,95.445,541.176,539.029,0.0
52560.0,STARLINK-3956,PAYLOAD,2024-05-12 12:55:09,15.08796027,0.0001127,53.2164,229.5924,81.6532,278.4588,0.0013536,0.00021294,0.0,0 STARLINK-3956,1 52560U 22051AD  24133.53830974  .00021294  00000-0  13536-2 0  9998,2 52560  53.2164 229.5924 0001127  81.6532 278.4588 15.08796027111088,6918.015,95.44,540.659,539.1,0.0
52560.0,STARLINK-3956,PAYLOAD,2024-05-13 12:45:56,15.08876563,9.85e-05,53.2164,225.1311,67.0803,293.0293,0.0013257,0.00020895,0.0,0 STARLINK-3956,1 52560U 22051AD  24134.53190954  .00020895  00000-0  13257-2 0  9992,2 52560  53.2164 225.1311 0000985  67.0803 293.0293 15.08876563111169,6917.769,95.435,540.315,538.952,0.0
52560.0,STARLINK-3956,PAYLOAD,2024-05-14 12:36:42,15.08864557,0.0001151,53.2174,220.6734,73.9848,286.1271,0.00039564,6.019e-05,0.0,0 STARLINK-3956,1 52560U 22051AD  24135.52549672  .00006019  00000-0  39564-3 0  9999,2 52560  53.2174 220.6734 0001151  73.9848 286.1271 15.08864557111383,6917.805,95.436,540.467,538.874,0.0
52560.0,STARLINK-3956,PAYLOAD,2024-05-14 22:09:01,15.08864864,9.5e-05,53.2169,218.8867,54.3169,305.7911,0.00020809,3.028e-05,0.0,0 STARLINK-3956,1 52560U 22051AD  24135.92292965  .00003028  00000-0  20809-3 0  9992,2 52560  53.2169 218.8867 0000950  54.3169 305.7911 15.08864864111377,6917.804,95.436,540.327,539.012,0.0
